{"type": "FeatureCollection", "features": [ {"type": "Feature", "properties": {"norad_id": 66583, "name": "STARLINK-35941", "group": "last-30-days", "lat": -2.75355926284324, "lon": 142.00848552943938, "alt_km": 407.91100094646026, "timestamp": "2025-12-08T15:42:48.537141+00:00", "meta": {"OBJECT_NAME": "STARLINK-35941", "OBJECT_ID": "2025-268AC", "EPOCH": "2025-12-08T06:00:02.999808", "MEAN_MOTION": 15.54791273, "ECCENTRICITY": 0.00013941, "INCLINATION": 43.0004, "RA_OF_ASC_NODE": 147.3464, "ARG_OF_PERICENTER": 266.656, "MEAN_ANOMALY": 342.7992, "EPHEMERIS_TYPE": 0, "CLASSIFICATION_TYPE": "U", "NORAD_CAT_ID": 66583, "ELEMENT_SET_NO": 999, "REV_AT_EPOCH": 394, "BSTAR": -0.033618799, "MEAN_MOTION_DOT": -0.02048893, "MEAN_MOTION_DDOT": 0}, "tle": {"line1": "1 66583U 25268AC  25342.25003472 -.02048893  00000+0 -33619-1 0  9998", "line2": "2 66583  43.0004 147.3464 0001394 266.6560 342.7992 15.54791273  3944"}}, "geometry": {"type": "Point", "coordinates": [142.00848552943938, -2.75355926284324]}}, {"type": "Feature", "properties": {"norad_id": 66584, "name": "STARLINK-35939", "group": "last-30-days", "lat": -1.4469566039946147, "lon": 143.40923759459912, "alt_km": 407.8963528732929, "timestamp": "2025-12-08T15:42:48.537152+00:00", "meta": {"OBJECT_NAME": "STARLINK-35939", "OBJECT_ID": "2025-268AD", "EPOCH": "2025-12-08T06:00:02.999808", "MEAN_MOTION": 15.54786443, "ECCENTRICITY": 0.00013686, "INCLINATION": 43.0007, "RA_OF_ASC_NODE": 147.3419, "ARG_OF_PERICENTER": 261.6965, "MEAN_ANOMALY": 349.6803, "EPHEMERIS_TYPE": 0, "CLASSIFICATION_TYPE": "U", "NORAD_CAT_ID": 66584, "ELEMENT_SET_NO": 999, "REV_AT_EPOCH": 394, "BSTAR": -0.033525994, "MEAN_MOTION_DOT": -0.02043501, "MEAN_MOTION_DDOT": 0}, "tle": {"line1": "1 66584U 25268AD  25342.25003472 -.02043501  00000+0 -33526-1 0  9997", "line2": "2 66584  43.0007 147.3419 0001368 261.6965 349.6803 15.54786443  3943"}}, "geometry": {"type": "Point", "coordinates": [143.40923759459912, -1.4469566039946147]}}, {"type": "Feature", "properties": {"norad_id": 66585, "name": "STARLINK-35963", "group": "last-30-days", "lat": -0.13947747631782376, "lon": 144.80810429911426, "alt_km": 407.7336132478167, "timestamp": "2025-12-08T15:42:48.537162+00:00", "meta": {"OBJECT_NAME": "STARLINK-35963", "OBJECT_ID": "2025-268AE", "EPOCH": "2025-12-08T06:00:02.999808", "MEAN_MOTION": 15.54789977, "ECCENTRICITY": 0.00015409, "INCLINATION": 43.0003, "RA_OF_ASC_NODE": 147.3372, "ARG_OF_PERICENTER": 263.5052, "MEAN_ANOMALY": 349.7845, "EPHEMERIS_TYPE": 0, "CLASSIFICATION_TYPE": "U", "NORAD_CAT_ID": 66585, "ELEMENT_SET_NO": 999, "REV_AT_EPOCH": 394, "BSTAR": -0.033579348, "MEAN_MOTION_DOT": -0.02046753, "MEAN_MOTION_DDOT": 0}, "tle": {"line1": "1 66585U 25268AE  25342.25003472 -.02046753  00000+0 -33579-1 0  9998", "line2": "2 66585  43.0003 147.3372 0001540 263.5052 349.7845 15.54789977  3940"}}, "geometry": {"type": "Point", "coordinates": [144.80810429911426, -0.13947747631782376]}}, {"type": "Feature", "properties": {"norad_id": 66586, "name": "TJS-21", "group": "last-30-days", "lat": 29.58748868499419, "lon": -33.86893020101772, "alt_km": 16427.0650607426, "timestamp": "2025-12-08T15:42:48.537175+00:00", "meta": {"OBJECT_NAME": "TJS-21", "OBJECT_ID": "2025-269A", "EPOCH": "2025-12-06T17:47:41.602272", "MEAN_MOTION": 2.00560491, "ECCENTRICITY": 0.68052367, "INCLINATION": 63.2668, "RA_OF_ASC_NODE": 162.9832, "ARG_OF_PERICENTER": 269.7989, "MEAN_ANOMALY": 18.6583, "EPHEMERIS_TYPE": 0, "CLASSIFICATION_TYPE": "U", "NORAD_CAT_ID": 66586, "ELEMENT_SET_NO": 999, "REV_AT_EPOCH": 32, "BSTAR": -0.014744059, "MEAN_MOTION_DOT": 1.105e-05, "MEAN_MOTION_DDOT": 0}, "tle": {"line1": "1 66586U 25269A   25340.74145373  .00001105  00000+0 -14744-1 0  9991", "line2": "2 66586  63.2668 162.9832 6805236 269.7989  18.6583  2.00560491   328"}}, "geometry": {"type": "Point", "coordinates": [-33.86893020101772, 29.58748868499419]}}, {"type": "Feature", "properties": {"norad_id": 66587, "name": "CZ-3B R/B", "group": "last-30-days", "lat": 45.798905917921466, "lon": -133.92904169820972, "alt_km": 33409.268608377235, "timestamp": "2025-12-08T15:42:48.537189+00:00", "meta": {"OBJECT_NAME": "CZ-3B R/B", "OBJECT_ID": "2025-269B", "EPOCH": "2025-12-07T20:37:07.541184", "MEAN_MOTION": 2.0277528, "ECCENTRICITY": 0.75198553, "INCLINATION": 51.3496, "RA_OF_ASC_NODE": 170.7741, "ARG_OF_PERICENTER": 227.8456, "MEAN_ANOMALY": 38.1634, "EPHEMERIS_TYPE": 0, "CLASSIFICATION_TYPE": "U", "NORAD_CAT_ID": 66587, "ELEMENT_SET_NO": 999, "REV_AT_EPOCH": 35, "BSTAR": 0.0013712139, "MEAN_MOTION_DOT": 0.00050942, "MEAN_MOTION_DDOT": -4.9325e-08}, "tle": {"line1": "1 66587U 25269B   25341.85911506  .00050942 -49325-7  13712-2 0  9993", "line2": "2 66587  51.3496 170.7741 7519855 227.8456  38.1634  2.02775280   359"}}, "geometry": {"type": "Point", "coordinates": [-133.92904169820972, 45.798905917921466]}}, {"type": "Feature", "properties": {"norad_id": 66588, "name": "STARLINK-36076", "group": "last-30-days", "lat": -15.953236148877162, "lon": 54.573795620798286, "alt_km": 389.9355446434065, "timestamp": "2025-12-08T15:42:48.537203+00:00", "meta": {"OBJECT_NAME": "STARLINK-36076", "OBJECT_ID": "2025-270A", "EPOCH": "2025-12-08T06:00:02.999808", "MEAN_MOTION": 15.61398881, "ECCENTRICITY": 0.00015388, "INCLINATION": 42.999, "RA_OF_ASC_NODE": 219.1116, "ARG_OF_PERICENTER": 276.4429, "MEAN_ANOMALY": 171.0351, "EPHEMERIS_TYPE": 0, "CLASSIFICATION_TYPE": "U", "NORAD_CAT_ID": 66588, "ELEMENT_SET_NO": 999, "REV_AT_EPOCH": 367, "BSTAR": -0.025963777, "MEAN_MOTION_DOT": -0.01999435, "MEAN_MOTION_DDOT": 0}, "tle": {"line1": "1 66588U 25270A   25342.25003472 -.01999435  00000+0 -25964-1 0  9996", "line2": "2 66588  42.9990 219.1116 0001538 276.4429 171.0351 15.61398881  3674"}}, "geometry": {"type": "Point", "coordinates": [54.573795620798286, -15.953236148877162]}}, {"type": "Feature", "properties": {"norad_id": 66589, "name": "STARLINK-35447", "group": "last-30-days", "lat": -18.418051957824613, "lon": 57.637857609578255, "alt_km": 390.06202055275935, "timestamp": "2025-12-08T15:42:48.537213+00:00", "meta": {"OBJECT_NAME": "STARLINK-35447", "OBJECT_ID": "2025-270B", "EPOCH": "2025-12-08T06:00:02.999808", "MEAN_MOTION": 15.61397354, "ECCENTRICITY": 0.00015026, "INCLINATION": 42.9989, "RA_OF_ASC_NODE": 219.1019, "ARG_OF_PERICENTER": 275.3942, "MEAN_ANOMALY": 175.9195, "EPHEMERIS_TYPE": 0, "CLASSIFICATION_TYPE": "U", "NORAD_CAT_ID": 66589, "ELEMENT_SET_NO": 999, "REV_AT_EPOCH": 378, "BSTAR": -0.025936618, "MEAN_MOTION_DOT": -0.0199747, "MEAN_MOTION_DDOT": 0}, "tle": {"line1": "1 66589U 25270B   25342.25003472 -.01997470  00000+0 -25937-1 0  9994", "line2": "2 66589  42.9989 219.1019 0001502 275.3942 175.9195 15.61397354  3789"}}, "geometry": {"type": "Point", "coordinates": [57.637857609578255, -18.418051957824613]}}, {"type": "Feature", "properties": {"norad_id": 66590, "name": "STARLINK-35429", "group": "last-30-days", "lat": -17.19195835553269, "lon": 56.09619666089869, "alt_km": 389.9943336192682, "timestamp": "2025-12-08T15:42:48.537224+00:00", "meta": {"OBJECT_NAME": "STARLINK-35429", "OBJECT_ID": "2025-270C", "EPOCH": "2025-12-08T06:00:02.999808", "MEAN_MOTION": 15.61397563, "ECCENTRICITY": 0.00015011, "INCLINATION": 42.9989, "RA_OF_ASC_NODE": 219.1067, "ARG_OF_PERICENTER": 275.5339, "MEAN_ANOMALY": 173.8627, "EPHEMERIS_TYPE": 0, "CLASSIFICATION_TYPE": "U", "NORAD_CAT_ID": 66590, "ELEMENT_SET_NO": 999, "REV_AT_EPOCH": 378, "BSTAR": -0.025939748, "MEAN_MOTION_DOT": -0.01997695, "MEAN_MOTION_DDOT": 0}, "tle": {"line1": "1 66590U 25270C   25342.25003472 -.01997695  00000+0 -25940-1 0  9999", "line2": "2 66590  42.9989 219.1067 0001501 275.5339 173.8627 15.61397563  3784"}}, "geometry": {"type": "Point", "coordinates": [56.09619666089869, -17.19195835553269]}}, {"type": "Feature", "properties": {"norad_id": 66591, "name": "STARLINK-36058", "group": "last-30-days", "lat": -19.630842362164152, "lon": 59.20069747666004, "alt_km": 390.13224005178563, "timestamp": "2025-12-08T15:42:48.537236+00:00", "meta": {"OBJECT_NAME": "STARLINK-36058", "OBJECT_ID": "2025-270D", "EPOCH": "2025-12-08T06:00:02.999808", "MEAN_MOTION": 15.6139789, "ECCENTRICITY": 0.0001546, "INCLINATION": 42.9989, "RA_OF_ASC_NODE": 219.097, "ARG_OF_PERICENTER": 276.0496, "MEAN_ANOMALY": 177.1799, "EPHEMERIS_TYPE": 0, "CLASSIFICATION_TYPE": "U", "NORAD_CAT_ID": 66591, "ELEMENT_SET_NO": 999, "REV_AT_EPOCH": 367, "BSTAR": -0.025934874, "MEAN_MOTION_DOT": -0.01997422, "MEAN_MOTION_DDOT": 0}, "tle": {"line1": "1 66591U 25270D   25342.25003472 -.01997422  00000+0 -25935-1 0  9992", "line2": "2 66591  42.9989 219.0970 0001546 276.0496 177.1799 15.61397890  3674"}}, "geometry": {"type": "Point", "coordinates": [59.20069747666004, -19.630842362164152]}}, {"type": "Feature", "properties": {"norad_id": 66592, "name": "STARLINK-36066", "group": "last-30-days", "lat": -20.83149194806098, "lon": 60.78966317116099, "alt_km": 390.23510045633884, "timestamp": "2025-12-08T15:42:48.537246+00:00", "meta": {"OBJECT_NAME": "STARLINK-36066", "OBJECT_ID": "2025-270E", "EPOCH": "2025-12-08T06:00:02.999808", "MEAN_MOTION": 15.61397534, "ECCENTRICITY": 0.00014463, "INCLINATION": 42.9989, "RA_OF_ASC_NODE": 219.0923, "ARG_OF_PERICENTER": 276.6312, "MEAN_ANOMALY": 178.5167, "EPHEMERIS_TYPE": 0, "CLASSIFICATION_TYPE": "U", "NORAD_CAT_ID": 66592, "ELEMENT_SET_NO": 999, "REV_AT_EPOCH": 358, "BSTAR": -0.025937885, "MEAN_MOTION_DOT": -0.01997526, "MEAN_MOTION_DDOT": 0}, "tle": {"line1": "1 66592U 25270E   25342.25003472 -.01997526  00000+0 -25938-1 0  9991", "line2": "2 66592  42.9989 219.0923 0001446 276.6312 178.5167 15.61397534  3584"}}, "geometry": {"type": "Point", "coordinates": [60.78966317116099, -20.83149194806098]}}]}